start=new Date('2022-08-08T00:00:00.000Z').valueOf();
sats=[{"TIME_SYSTEM":"UTC","MEAN_MOTION":"15.06400727","TLE_LINE2":"2 47907  53.0553  41.6053 0001360  83.5288 276.5855 15.06400727 78592","REF_FRAME":"TEME","ELEMENT_SET_NO":"999","SITE":"AFETR","BSTAR":"0.00017016000000","EPHEMERIS_TYPE":"0","RA_OF_ASC_NODE":"41.6053","OBJECT_TYPE":"PAYLOAD","NORAD_CAT_ID":"47907","APOAPSIS":"548.153","CENTER_NAME":"EARTH","PERIOD":"95.592","LAUNCH_DATE":"2021-03-14","DECAY_DATE":null,"REV_AT_EPOCH":"7859","ARG_OF_PERICENTER":"83.5288","COUNTRY_CODE":"US","INCLINATION":"53.0553","OBJECT_NAME":"STARLINK-2367","FILE":"3531552","TLE_LINE1":"1 47907U 21021AZ  22219.87738844  .00002254  00000-0  17016-3 0  9999","GP_ID":"209792456","MEAN_ANOMALY":"276.5855","ECCENTRICITY":"0.00013600","EPOCH":"2022-08-07T21:03:26.361216","MEAN_ELEMENT_THEORY":"SGP4","PERIAPSIS":"546.269","CLASSIFICATION_TYPE":"U","MEAN_MOTION_DDOT":"0.0000000000000","OBJECT_ID":"2021-021AZ","SEMIMAJOR_AXIS":"6925.346","MEAN_MOTION_DOT":"0.00002254","RCS_SIZE":"LARGE"},{"GP_ID":"209793203","ECCENTRICITY":"0.00017170","MEAN_ANOMALY":"263.5299","EPOCH":"2022-08-07T21:14:03.140448","PERIAPSIS":"545.983","MEAN_ELEMENT_THEORY":"SGP4","CLASSIFICATION_TYPE":"U","OBJECT_ID":"2021-021BA","MEAN_MOTION_DDOT":"0.0000000000000","MEAN_MOTION_DOT":"-0.00004241","SEMIMAJOR_AXIS":"6925.307","RCS_SIZE":"LARGE","REV_AT_EPOCH":"7862","DECAY_DATE":null,"COUNTRY_CODE":"US","INCLINATION":"53.0555","OBJECT_NAME":"STARLINK-2368","ARG_OF_PERICENTER":"96.5886","TLE_LINE1":"1 47908U 21021BA  22219.88475857 -.00004241  00000-0 -26589-3 0  9998","FILE":"3531552","ELEMENT_SET_NO":"999","SITE":"AFETR","BSTAR":"-0.00026589000000","EPHEMERIS_TYPE":"0","RA_OF_ASC_NODE":"41.5761","OBJECT_TYPE":"PAYLOAD","NORAD_CAT_ID":"47908","APOAPSIS":"548.361","CENTER_NAME":"EARTH","PERIOD":"95.591","LAUNCH_DATE":"2021-03-14","MEAN_MOTION":"15.06413682","TIME_SYSTEM":"UTC","TLE_LINE2":"2 47908  53.0555  41.5761 0001717  96.5886 263.5299 15.06413682 78620","REF_FRAME":"TEME"},{"TLE_LINE2":"2 47909  53.0552  32.0993 0001458  89.9383 270.1773 15.06404815 78911","REF_FRAME":"TEME","MEAN_MOTION":"15.06404815","TIME_SYSTEM":"UTC","PERIOD":"95.592","CENTER_NAME":"EARTH","LAUNCH_DATE":"2021-03-14","OBJECT_TYPE":"PAYLOAD","APOAPSIS":"548.209","NORAD_CAT_ID":"47909","BSTAR":"0.00012098000000","SITE":"AFETR","EPHEMERIS_TYPE":"0","RA_OF_ASC_NODE":"32.0993","ELEMENT_SET_NO":"999","TLE_LINE1":"1 47909U 21021BB  22219.76772991  .00001521  00000-0  12098-3 0  9991","FILE":"3531552","COUNTRY_CODE":"US","INCLINATION":"53.0552","OBJECT_NAME":"STARLINK-2369","ARG_OF_PERICENTER":"89.9383","REV_AT_EPOCH":"7891","DECAY_DATE":null,"SEMIMAJOR_AXIS":"6925.334","MEAN_MOTION_DOT":"0.00001521","RCS_SIZE":"LARGE","CLASSIFICATION_TYPE":"U","OBJECT_ID":"2021-021BB","MEAN_MOTION_DDOT":"0.0000000000000","PERIAPSIS":"546.189","MEAN_ELEMENT_THEORY":"SGP4","ECCENTRICITY":"0.00014580","GP_ID":"209793443","MEAN_ANOMALY":"270.1773","EPOCH":"2022-08-07T18:25:31.864224"},{"EPOCH":"2022-08-07T20:52:47.666496","GP_ID":"209792206","ECCENTRICITY":"0.00011210","MEAN_ANOMALY":"277.5554","PERIAPSIS":"546.442","MEAN_ELEMENT_THEORY":"SGP4","OBJECT_ID":"2021-021BC","MEAN_MOTION_DDOT":"0.0000000000000","CLASSIFICATION_TYPE":"U","RCS_SIZE":"LARGE","SEMIMAJOR_AXIS":"6925.353","MEAN_MOTION_DOT":"0.00001448","REV_AT_EPOCH":"7878","DECAY_DATE":null,"COUNTRY_CODE":"US","INCLINATION":"53.0556","OBJECT_NAME":"STARLINK-2370","ARG_OF_PERICENTER":"82.5562","TLE_LINE1":"1 47910U 21021BC  22219.86999614  .00001448  00000-0  11609-3 0  9992","FILE":"3531552","ELEMENT_SET_NO":"999","RA_OF_ASC_NODE":"31.6411","EPHEMERIS_TYPE":"0","BSTAR":"0.00011609000000","SITE":"AFETR","NORAD_CAT_ID":"47910","APOAPSIS":"547.994","OBJECT_TYPE":"PAYLOAD","LAUNCH_DATE":"2021-03-14","CENTER_NAME":"EARTH","PERIOD":"95.592","MEAN_MOTION":"15.06398529","TIME_SYSTEM":"UTC","REF_FRAME":"TEME","TLE_LINE2":"2 47910  53.0556  31.6411 0001121  82.5562 277.5554 15.06398529 78789"},{"ARG_OF_PERICENTER":"90.1104","COUNTRY_CODE":"US","INCLINATION":"53.0557","OBJECT_NAME":"STARLINK-2371","DECAY_DATE":null,"REV_AT_EPOCH":"7840","FILE":"3531552","TLE_LINE1":"1 47911U 21021BD  22219.88617300  .00001033  00000-0  88277-4 0  9990","MEAN_ELEMENT_THEORY":"SGP4","PERIAPSIS":"546.119","EPOCH":"2022-08-07T21:16:05.347200","MEAN_ANOMALY":"270.0068","GP_ID":"209792957","ECCENTRICITY":"0.00015980","RCS_SIZE":"LARGE","SEMIMAJOR_AXIS":"6925.361","MEAN_MOTION_DOT":"0.00001033","MEAN_MOTION_DDOT":"0.0000000000000","OBJECT_ID":"2021-021BD","CLASSIFICATION_TYPE":"U","TIME_SYSTEM":"UTC","MEAN_MOTION":"15.06396010","REF_FRAME":"TEME","TLE_LINE2":"2 47911  53.0557  46.7992 0001598  90.1104 270.0068 15.06396010 78407","RA_OF_ASC_NODE":"46.7992","EPHEMERIS_TYPE":"0","BSTAR":"0.00008827700000","SITE":"AFETR","ELEMENT_SET_NO":"999","LAUNCH_DATE":"2021-03-14","CENTER_NAME":"EARTH","PERIOD":"95.592","APOAPSIS":"548.332","NORAD_CAT_ID":"47911","OBJECT_TYPE":"PAYLOAD"},{"CENTER_NAME":"EARTH","PERIOD":"95.592","LAUNCH_DATE":"2021-03-14","OBJECT_TYPE":"PAYLOAD","APOAPSIS":"548.130","NORAD_CAT_ID":"47912","BSTAR":"0.00013006000000","SITE":"AFETR","EPHEMERIS_TYPE":"0","RA_OF_ASC_NODE":"31.6592","ELEMENT_SET_NO":"999","TLE_LINE2":"2 47912  53.0565  31.6592 0001316  81.5925 278.5213 15.06398477 78616","REF_FRAME":"TEME","MEAN_MOTION":"15.06398477","TIME_SYSTEM":"UTC","MEAN_MOTION_DOT":"0.00001656","SEMIMAJOR_AXIS":"6925.353","RCS_SIZE":"LARGE","CLASSIFICATION_TYPE":"U","OBJECT_ID":"2021-021BE","MEAN_MOTION_DDOT":"0.0000000000000","PERIAPSIS":"546.307","MEAN_ELEMENT_THEORY":"SGP4","GP_ID":"209793704","ECCENTRICITY":"0.00013160","MEAN_ANOMALY":"278.5213","EPOCH":"2022-08-07T20:42:10.712736","TLE_LINE1":"1 47912U 21021BE  22219.86262399  .00001656  00000-0  13006-3 0  9991","FILE":"3531552","COUNTRY_CODE":"US","INCLINATION":"53.0565","OBJECT_NAME":"STARLINK-2372","ARG_OF_PERICENTER":"81.5925","REV_AT_EPOCH":"7861","DECAY_DATE":null},{"TLE_LINE1":"1 47913U 21021BF  22219.87007675  .00000226  00000-0  34085-4 0  9990","FILE":"3531552","COUNTRY_CODE":"US","OBJECT_NAME":"STARLINK-2374","INCLINATION":"53.0590","ARG_OF_PERICENTER":"72.8359","REV_AT_EPOCH":"7863","DECAY_DATE":null,"SEMIMAJOR_AXIS":"6925.358","MEAN_MOTION_DOT":"0.00000226","RCS_SIZE":"LARGE","CLASSIFICATION_TYPE":"U","OBJECT_ID":"2021-021BF","MEAN_MOTION_DDOT":"0.0000000000000","PERIAPSIS":"546.396","MEAN_ELEMENT_THEORY":"SGP4","GP_ID":"209793944","ECCENTRICITY":"0.00011930","MEAN_ANOMALY":"287.2760","EPOCH":"2022-08-07T20:52:54.631200","TLE_LINE2":"2 47913  53.0590  42.1071 0001193  72.8359 287.2760 15.06397041 78633","REF_FRAME":"TEME","MEAN_MOTION":"15.06397041","TIME_SYSTEM":"UTC","CENTER_NAME":"EARTH","PERIOD":"95.592","LAUNCH_DATE":"2021-03-14","OBJECT_TYPE":"PAYLOAD","APOAPSIS":"548.049","NORAD_CAT_ID":"47913","BSTAR":"0.00003408500000","SITE":"AFETR","EPHEMERIS_TYPE":"0","RA_OF_ASC_NODE":"42.1071","ELEMENT_SET_NO":"999"},{"CENTER_NAME":"EARTH","PERIOD":"95.593","LAUNCH_DATE":"2021-03-14","OBJECT_TYPE":"PAYLOAD","NORAD_CAT_ID":"47914","APOAPSIS":"548.239","BSTAR":"-0.00004434100000","SITE":"AFETR","EPHEMERIS_TYPE":"0","RA_OF_ASC_NODE":"41.8559","ELEMENT_SET_NO":"999","TLE_LINE2":"2 47914  53.0565  41.8559 0001450  96.3810 263.7344 15.06393079 78625","REF_FRAME":"TEME","MEAN_MOTION":"15.06393079","TIME_SYSTEM":"UTC","MEAN_MOTION_DOT":"-0.00000942","SEMIMAJOR_AXIS":"6925.370","RCS_SIZE":"LARGE","CLASSIFICATION_TYPE":"U","OBJECT_ID":"2021-021BG","MEAN_MOTION_DDOT":"0.0000000000000","PERIAPSIS":"546.231","MEAN_ELEMENT_THEORY":"SGP4","GP_ID":"209792707","ECCENTRICITY":"0.00014500","MEAN_ANOMALY":"263.7344","EPOCH":"2022-08-07T19:43:49.808928","TLE_LINE1":"1 47914U 21021BG  22219.82210427 -.00000942  00000-0 -44341-4 0  9990","FILE":"3531552","COUNTRY_CODE":"US","OBJECT_NAME":"STARLINK-2375","INCLINATION":"53.0565","ARG_OF_PERICENTER":"96.3810","REV_AT_EPOCH":"7862","DECAY_DATE":null},{"FILE":"3531552","TLE_LINE1":"1 47915U 21021BH  22219.82071961  .00003996  00000-0  28698-3 0  9995","ARG_OF_PERICENTER":"94.1753","COUNTRY_CODE":"US","OBJECT_NAME":"STARLINK-2376","INCLINATION":"53.0532","DECAY_DATE":null,"REV_AT_EPOCH":"7870","SEMIMAJOR_AXIS":"6925.342","MEAN_MOTION_DOT":"0.00003996","RCS_SIZE":"LARGE","CLASSIFICATION_TYPE":"U","MEAN_MOTION_DDOT":"0.0000000000000","OBJECT_ID":"2021-021BH","MEAN_ELEMENT_THEORY":"SGP4","PERIAPSIS":"546.109","GP_ID":"209792457","MEAN_ANOMALY":"265.9417","ECCENTRICITY":"0.00015860","EPOCH":"2022-08-07T19:41:50.174304","TLE_LINE2":"2 47915  53.0532  36.8512 0001586  94.1753 265.9417 15.06402026 78702","REF_FRAME":"TEME","TIME_SYSTEM":"UTC","MEAN_MOTION":"15.06402026","CENTER_NAME":"EARTH","PERIOD":"95.592","LAUNCH_DATE":"2021-03-14","OBJECT_TYPE":"PAYLOAD","NORAD_CAT_ID":"47915","APOAPSIS":"548.306","BSTAR":"0.00028698000000","SITE":"AFETR","EPHEMERIS_TYPE":"0","RA_OF_ASC_NODE":"36.8512","ELEMENT_SET_NO":"999"},{"TLE_LINE2":"2 47916  53.0554  21.6820 0001321  93.6982 266.4158 15.06403279 78895","REF_FRAME":"TEME","MEAN_MOTION":"15.06403279","TIME_SYSTEM":"UTC","OBJECT_TYPE":"PAYLOAD","NORAD_CAT_ID":"47916","APOAPSIS":"548.118","PERIOD":"95.592","CENTER_NAME":"EARTH","LAUNCH_DATE":"2021-03-14","ELEMENT_SET_NO":"999","SITE":"AFETR","BSTAR":"0.00014055000000","EPHEMERIS_TYPE":"0","RA_OF_ASC_NODE":"21.6820","TLE_LINE1":"1 47916U 21021BJ  22219.86079766  .00001813  00000-0  14055-3 0  9999","FILE":"3531552","REV_AT_EPOCH":"7889","DECAY_DATE":null,"COUNTRY_CODE":"US","OBJECT_NAME":"STARLINK-2378","INCLINATION":"53.0554","ARG_OF_PERICENTER":"93.6982","CLASSIFICATION_TYPE":"U","OBJECT_ID":"2021-021BJ","MEAN_MOTION_DDOT":"0.0000000000000","SEMIMAJOR_AXIS":"6925.339","MEAN_MOTION_DOT":"0.00001813","RCS_SIZE":"LARGE","GP_ID":"209793204","MEAN_ANOMALY":"266.4158","ECCENTRICITY":"0.00013210","EPOCH":"2022-08-07T20:39:32.917824","PERIAPSIS":"546.289","MEAN_ELEMENT_THEORY":"SGP4"}];
